MESON-1                 
1 59131U 24043AK  26068.90019075  .00008544  00000+0  29748-3 0  9998
2 59131  97.5469 205.2839 0009545 227.1432 132.9007 15.29893494111890
STARLINK-35131          
1 66075U 25235T   26068.70812932  .00016262  00000+0  55998-3 0  9990
2 66075  53.1578 245.2262 0001068  46.1174 313.9915 15.30199624 22922
